{
  "compact":{
    "af":{
      "name":"Afrikaans",
      "nativeName":"Afrikaans",
      "dir":"ltr",
      "scripts":null,
      "translation":true,
      "speech":false,
      "truetext":false,
      "conversationalSpeech":false,
      "customizableSpeech":false,
      "dictionaries":[
        {
          "name":"English",
          "nativeName":"English",
          "dir":"ltr",
          "code":"en"
        }
      ],
      "voices":null,
      "speechRegions":null
    },
    "apc":{
      "name":"Arabic, Levantine",
      "nativeName":"اللهجة الشامية",
      "dir":"rtl",
      "scripts":null,
      "translation":false,
      "speech":true,
      "truetext":false,
      "conversationalSpeech":true,
      "customizableSpeech":false,
      "speechCode":"ar-SY",
      "voices":[
        {
          "gender":"female",
          "locale":"ar-SY",
          "displayName":"Hoda",
          "regionName":"Syria",
          "region":"SY",
          "nativeRegionName":"Syria",
          "voice":"ar-SY-Hoda",
          "shortName":"ar-SY-Hoda"
        }
      ],
      "speechRegions":[
        {
          "code":"SY",
          "name":"Syria",
          "nativeName":"Syria"
        }
      ]
    },
    "ar":{
      "name":"Arabic",
      "nativeName":"العربية",
      "dir":"rtl",
      "scripts":[
        {
          "code":"Arab",
          "name":"Arabic",
          "nativeName":"العربية",
          "dir":"rtl",
          "toScripts":[
            {
              "code":"Latn",
              "name":"Latin",
              "nativeName":"اللاتينية",
              "dir":"ltr"
            }
          ]
        },
        {
          "code":"Latn",
          "name":"Latin",
          "nativeName":"اللاتينية",
          "dir":"ltr",
          "toScripts":[
            {
              "code":"Arab",
              "name":"Arabic",
              "nativeName":"العربية",
              "dir":"rtl"
            }
          ]
        }
      ],
      "translation":true,
      "speech":true,
      "truetext":true,
      "conversationalSpeech":true,
      "customizableSpeech":false,
      "speechCode":"ar-EG",
      "dictionaries":[
        {
          "name":"English",
          "nativeName":"English",
          "dir":"ltr",
          "code":"en"
        }
      ],
      "voices":[
        {
          "gender":"female",
          "locale":"ar-EG",
          "displayName":"Hoda",
          "regionName":"Egypt",
          "region":"EG",
          "nativeRegionName":"مصر",
          "voice":"ar-EG-Hoda",
          "shortName":"ar-EG-Hoda"
        },
        {
          "gender":"male",
          "locale":"ar-SA",
          "displayName":"Naayf",
          "regionName":"Saudi Arabia",
          "region":"SA",
          "nativeRegionName":"المملكة العربية السعودية",
          "voice":"ar-SA-Naayf",
          "shortName":"ar-SA-Naayf"
        }
      ],
      "speechRegions":[
        {
          "code":"EG",
          "name":"Egypt",
          "nativeName":"مصر"
        },
        {
          "code":"SA",
          "name":"Saudi Arabia",
          "nativeName":"المملكة العربية السعودية"
        },
        {
          "code":"AE",
          "name":"U.A.E.",
          "nativeName":"الإمارات العربية المتحدة"
        },
        {
          "code":"KW",
          "name":"Kuwait",
          "nativeName":"الكويت"
        },
        {
          "code":"QA",
          "name":"Qatar",
          "nativeName":"قطر"
        },
        {
          "code":"BH",
          "name":"Bahrain",
          "nativeName":"البحرين"
        }
      ]
    },
    "as":{
      "name":"Assamese",
      "nativeName":"Assamese",
      "dir":"ltr",
      "scripts":null,
      "translation":true,
      "speech":false,
      "truetext":false,
      "conversationalSpeech":false,
      "customizableSpeech":false,
      "voices":null,
      "speechRegions":null
    },
    "be":{
      "name":"Belarusian",
      "nativeName":"Belarusian",
      "dir":"ltr",
      "scripts":[
        {
          "code":"Cyrl",
          "name":"Cyrillic",
          "nativeName":"Cyrillic",
          "dir":"ltr",
          "toScripts":[
            {
              "code":"Latn",
              "name":"Latin",
              "nativeName":"Latin",
              "dir":"ltr"
            }
          ]
        },
        {
          "code":"Latn",
          "name":"Latin",
          "nativeName":"Latin",
          "dir":"ltr",
          "toScripts":[
            {
              "code":"Cyrl",
              "name":"Cyrillic",
              "nativeName":"Cyrillic",
              "dir":"ltr"
            }
          ]
        }
      ],
      "translation":false,
      "speech":false,
      "truetext":false,
      "conversationalSpeech":false,
      "customizableSpeech":false,
      "voices":null,
      "speechRegions":null
    },
    "bg":{
      "name":"Bulgarian",
      "nativeName":"Български",
      "dir":"ltr",
      "scripts":[
        {
          "code":"Cyrl",
          "name":"Cyrillic",
          "nativeName":"Кирилица",
          "dir":"ltr",
          "toScripts":[
            {
              "code":"Latn",
              "name":"Latin",
              "nativeName":"Латиница",
              "dir":"ltr"
            }
          ]
        },
        {
          "code":"Latn",
          "name":"Latin",
          "nativeName":"Латиница",
          "dir":"ltr",
          "toScripts":[
            {
              "code":"Cyrl",
              "name":"Cyrillic",
              "nativeName":"Кирилица",
              "dir":"ltr"
            }
          ]
        }
      ],
      "translation":true,
      "speech":false,
      "truetext":false,
      "conversationalSpeech":false,
      "customizableSpeech":false,
      "dictionaries":[
        {
          "name":"English",
          "nativeName":"English",
          "dir":"ltr",
          "code":"en"
        }
      ],
      "voices":[
        {
          "gender":"male",
          "locale":"bg-BG",
          "displayName":"Ivan",
          "regionName":"Bulgaria",
          "region":"BG",
          "nativeRegionName":"България",
          "voice":"bg-BG-Ivan",
          "shortName":"bg-BG-Ivan"
        }
      ],
      "speechRegions":null
    },
    "bn":{
      "name":"Bangla",
      "nativeName":"বাংলা",
      "dir":"ltr",
      "scripts":[
        {
          "code":"Beng",
          "name":"Bengali",
          "nativeName":"Bengali",
          "dir":"ltr",
          "toScripts":[
            {
              "code":"Latn",
              "name":"Latin",
              "nativeName":"Latin",
              "dir":"ltr"
            }
          ]
        },
        {
          "code":"Latn",
          "name":"Latin",
          "nativeName":"Latin",
          "dir":"ltr",
          "toScripts":[
            {
              "code":"Beng",
              "name":"Bangla",
              "nativeName":"Bengali",
              "dir":"ltr"
            }
          ]
        }
      ],
      "translation":true,
      "speech":false,
      "truetext":false,
      "conversationalSpeech":false,
      "customizableSpeech":false,
      "dictionaries":[
        {
          "name":"English",
          "nativeName":"English",
          "dir":"ltr",
          "code":"en"
        }
      ],
      "voices":null,
      "speechRegions":null
    },
    "bs":{
      "name":"Bosnian",
      "nativeName":"bosanski (latinica)",
      "dir":"ltr",
      "scripts":null,
      "translation":true,
      "speech":false,
      "truetext":false,
      "conversationalSpeech":false,
      "customizableSpeech":false,
      "dictionaries":[
        {
          "name":"English",
          "nativeName":"English",
          "dir":"ltr",
          "code":"en"
        }
      ],
      "voices":null,
      "speechRegions":null
    },
    "ca":{
      "name":"Catalan",
      "nativeName":"Català",
      "dir":"ltr",
      "scripts":null,
      "translation":true,
      "speech":true,
      "truetext":false,
      "conversationalSpeech":false,
      "customizableSpeech":false,
      "speechCode":"ca-ES",
      "dictionaries":[
        {
          "name":"English",
          "nativeName":"English",
          "dir":"ltr",
          "code":"en"
        }
      ],
      "voices":[
        {
          "gender":"female",
          "locale":"ca-ES",
          "displayName":"Herena",
          "regionName":"Spain",
          "region":"ES",
          "nativeRegionName":"Espanya",
          "voice":"ca-ES-Herena",
          "shortName":"ca-ES-Herena"
        }
      ],
      "speechRegions":[
        {
          "code":"ES",
          "name":"Spain",
          "nativeName":"Espanya"
        }
      ]
    },
    "cs":{
      "name":"Czech",
      "nativeName":"Čeština",
      "dir":"ltr",
      "scripts":null,
      "translation":true,
      "speech":false,
      "truetext":false,
      "conversationalSpeech":false,
      "customizableSpeech":false,
      "dictionaries":[
        {
          "name":"English",
          "nativeName":"English",
          "dir":"ltr",
          "code":"en"
        }
      ],
      "voices":[
        {
          "gender":"male",
          "locale":"cs-CZ",
          "displayName":"Jakub",
          "regionName":"Czech Republic",
          "region":"CZ",
          "nativeRegionName":"Česká republika",
          "voice":"cs-CZ-Jakub",
          "shortName":"cs-CZ-Jakub"
        }
      ],
      "speechRegions":null
    },
    "cy":{
      "name":"Welsh",
      "nativeName":"Welsh",
      "dir":"ltr",
      "scripts":null,
      "translation":true,
      "speech":false,
      "truetext":false,
      "conversationalSpeech":false,
      "customizableSpeech":false,
      "dictionaries":[
        {
          "name":"English",
          "nativeName":"English",
          "dir":"ltr",
          "code":"en"
        }
      ],
      "voices":null,
      "speechRegions":null
    },
    "da":{
      "name":"Danish",
      "nativeName":"Dansk",
      "dir":"ltr",
      "scripts":null,
      "translation":true,
      "speech":true,
      "truetext":false,
      "conversationalSpeech":false,
      "customizableSpeech":false,
      "speechCode":"da-DK",
      "dictionaries":[
        {
          "name":"English",
          "nativeName":"English",
          "dir":"ltr",
          "code":"en"
        }
      ],
      "voices":[
        {
          "gender":"female",
          "locale":"da-DK",
          "displayName":"Helle",
          "regionName":"Denmark",
          "region":"DK",
          "nativeRegionName":"Danmark",
          "voice":"da-DK-Helle",
          "shortName":"da-DK-Helle"
        }
      ],
      "speechRegions":[
        {
          "code":"DK",
          "name":"Denmark",
          "nativeName":"Danmark"
        }
      ]
    },
    "de":{
      "name":"German",
      "nativeName":"Deutsch",
      "dir":"ltr",
      "scripts":null,
      "translation":true,
      "speech":true,
      "truetext":true,
      "conversationalSpeech":true,
      "customizableSpeech":true,
      "speechCode":"de-DE",
      "dictionaries":[
        {
          "name":"English",
          "nativeName":"English",
          "dir":"ltr",
          "code":"en"
        }
      ],
      "voices":[
        {
          "gender":"male",
          "locale":"de-AT",
          "displayName":"Michael",
          "regionName":"Austria",
          "region":"AT",
          "nativeRegionName":"Österreich",
          "voice":"de-AT-Michael",
          "shortName":"de-AT-Michael"
        },
        {
          "gender":"male",
          "locale":"de-CH",
          "displayName":"Karsten",
          "regionName":"Switzerland",
          "region":"CH",
          "nativeRegionName":"Schweiz",
          "voice":"de-CH-Karsten",
          "shortName":"de-CH-Karsten"
        },
        {
          "gender":"female",
          "locale":"de-DE",
          "displayName":"Hedda",
          "regionName":"Germany",
          "region":"DE",
          "nativeRegionName":"Deutschland",
          "voice":"de-DE-Hedda",
          "shortName":"de-DE-Hedda"
        },
        {
          "gender":"male",
          "locale":"de-DE",
          "displayName":"Stefan",
          "regionName":"Germany",
          "region":"DE",
          "nativeRegionName":"Deutschland",
          "voice":"de-DE-Stefan",
          "shortName":"de-DE-Stefan-Apollo"
        },
        {
          "gender":"female",
          "locale":"de-DE",
          "displayName":"Katja",
          "regionName":"Germany",
          "region":"DE",
          "nativeRegionName":"Deutschland",
          "voice":"de-DE-Katja",
          "shortName":"de-DE-Katja-Apollo"
        }
      ],
      "speechRegions":[
        {
          "code":"DE",
          "name":"Germany",
          "nativeName":"Deutschland"
        }
      ]
    },
    "el":{
      "name":"Greek",
      "nativeName":"Ελληνικά",
      "dir":"ltr",
      "scripts":null,
      "translation":true,
      "speech":false,
      "truetext":false,
      "conversationalSpeech":false,
      "customizableSpeech":false,
      "dictionaries":[
        {
          "name":"English",
          "nativeName":"English",
          "dir":"ltr",
          "code":"en"
        }
      ],
      "voices":[
        {
          "gender":"male",
          "locale":"el-GR",
          "displayName":"Stefanos",
          "regionName":"Greece",
          "region":"GR",
          "nativeRegionName":"Ελλάδα",
          "voice":"el-GR-Stefanos",
          "shortName":"el-GR-Stefanos"
        }
      ],
      "speechRegions":null
    },
    "en":{
      "name":"English",
      "nativeName":"English",
      "dir":"ltr",
      "scripts":null,
      "translation":true,
      "speech":true,
      "truetext":true,
      "conversationalSpeech":true,
      "customizableSpeech":false,
      "speechCode":"en-US",
      "dictionaries":[
        {
          "name":"Afrikaans",
          "nativeName":"Afrikaans",
          "dir":"ltr",
          "code":"af"
        },
        {
          "name":"Arabic",
          "nativeName":"العربية",
          "dir":"rtl",
          "code":"ar"
        },
        {
          "name":"Bulgarian",
          "nativeName":"Български",
          "dir":"ltr",
          "code":"bg"
        },
        {
          "name":"Bangla",
          "nativeName":"বাংলা",
          "dir":"ltr",
          "code":"bn"
        },
        {
          "name":"Bosnian (Latin)",
          "nativeName":"bosanski (latinica)",
          "dir":"ltr",
          "code":"bs"
        },
        {
          "name":"Catalan",
          "nativeName":"Català",
          "dir":"ltr",
          "code":"ca"
        },
        {
          "name":"Chinese Simplified",
          "nativeName":"简体中文",
          "dir":"ltr",
          "code":"zh-Hans"
        },
        {
          "name":"Czech",
          "nativeName":"Čeština",
          "dir":"ltr",
          "code":"cs"
        },
        {
          "name":"Welsh",
          "nativeName":"Welsh",
          "dir":"ltr",
          "code":"cy"
        },
        {
          "name":"Danish",
          "nativeName":"Dansk",
          "dir":"ltr",
          "code":"da"
        },
        {
          "name":"German",
          "nativeName":"Deutsch",
          "dir":"ltr",
          "code":"de"
        },
        {
          "name":"Greek",
          "nativeName":"Ελληνικά",
          "dir":"ltr",
          "code":"el"
        },
        {
          "name":"Spanish",
          "nativeName":"Español",
          "dir":"ltr",
          "code":"es"
        },
        {
          "name":"Estonian",
          "nativeName":"Eesti",
          "dir":"ltr",
          "code":"et"
        },
        {
          "name":"Persian",
          "nativeName":"Persian",
          "dir":"rtl",
          "code":"fa"
        },
        {
          "name":"Finnish",
          "nativeName":"Suomi",
          "dir":"ltr",
          "code":"fi"
        },
        {
          "name":"Faroese",
          "nativeName":"Haitian Creole",
          "dir":"ltr",
          "code":"ht"
        },
        {
          "name":"French",
          "nativeName":"Français",
          "dir":"ltr",
          "code":"fr"
        },
        {
          "name":"Hebrew",
          "nativeName":"עברית",
          "dir":"rtl",
          "code":"he"
        },
        {
          "name":"Hindi",
          "nativeName":"हिंदी",
          "dir":"ltr",
          "code":"hi"
        },
        {
          "name":"Croatian",
          "nativeName":"Hrvatski",
          "dir":"ltr",
          "code":"hr"
        },
        {
          "name":"Hungarian",
          "nativeName":"Magyar",
          "dir":"ltr",
          "code":"hu"
        },
        {
          "name":"Indonesian",
          "nativeName":"Indonesia",
          "dir":"ltr",
          "code":"id"
        },
        {
          "name":"Icelandic",
          "nativeName":"Íslenska",
          "dir":"ltr",
          "code":"is"
        },
        {
          "name":"Italian",
          "nativeName":"Italiano",
          "dir":"ltr",
          "code":"it"
        },
        {
          "name":"Japanese",
          "nativeName":"日本語",
          "dir":"ltr",
          "code":"ja"
        },
        {
          "name":"Korean",
          "nativeName":"한국어",
          "dir":"ltr",
          "code":"ko"
        },
        {
          "name":"Lithuanian",
          "nativeName":"Lietuvių",
          "dir":"ltr",
          "code":"lt"
        },
        {
          "name":"Latvian",
          "nativeName":"Latviešu",
          "dir":"ltr",
          "code":"lv"
        },
        {
          "name":"Maltese",
          "nativeName":"Il-Malti",
          "dir":"ltr",
          "code":"mt"
        },
        {
          "name":"Malay",
          "nativeName":"Melayu",
          "dir":"ltr",
          "code":"ms"
        },
        {
          "name":"Hmong Daw",
          "nativeName":"Hmong Daw",
          "dir":"ltr",
          "code":"mww"
        },
        {
          "name":"Dutch",
          "nativeName":"Nederlands",
          "dir":"ltr",
          "code":"nl"
        },
        {
          "name":"Norwegian",
          "nativeName":"Norsk",
          "dir":"ltr",
          "code":"nb"
        },
        {
          "name":"Polish",
          "nativeName":"Polski",
          "dir":"ltr",
          "code":"pl"
        },
        {
          "name":"Portuguese (Brazil)",
          "nativeName":"Português (Brasil)",
          "dir":"ltr",
          "code":"pt"
        },
        {
          "name":"Romanian",
          "nativeName":"Română",
          "dir":"ltr",
          "code":"ro"
        },
        {
          "name":"Russian",
          "nativeName":"Русский",
          "dir":"ltr",
          "code":"ru"
        },
        {
          "name":"Slovak",
          "nativeName":"Slovenčina",
          "dir":"ltr",
          "code":"sk"
        },
        {
          "name":"Slovenian",
          "nativeName":"Slovenščina",
          "dir":"ltr",
          "code":"sl"
        },
        {
          "name":"Serbian (Latin)",
          "nativeName":"srpski (latinica)",
          "dir":"ltr",
          "code":"sr-Latn"
        },
        {
          "name":"Swedish",
          "nativeName":"Svenska",
          "dir":"ltr",
          "code":"sv"
        },
        {
          "name":"Swahili",
          "nativeName":"Kiswahili",
          "dir":"ltr",
          "code":"sw"
        },
        {
          "name":"Tamil",
          "nativeName":"தமிழ்",
          "dir":"ltr",
          "code":"ta"
        },
        {
          "name":"Thai",
          "nativeName":"ไทย",
          "dir":"ltr",
          "code":"th"
        },
        {
          "name":"Klingon (Latin)",
          "nativeName":"Klingon (Latin)",
          "dir":"ltr",
          "code":"tlh-Latn"
        },
        {
          "name":"Turkish",
          "nativeName":"Türkçe",
          "dir":"ltr",
          "code":"tr"
        },
        {
          "name":"Ukrainian",
          "nativeName":"Українська",
          "dir":"ltr",
          "code":"uk"
        },
        {
          "name":"Urdu",
          "nativeName":"اردو",
          "dir":"rtl",
          "code":"ur"
        },
        {
          "name":"Vietnamese",
          "nativeName":"Tiếng Việt",
          "dir":"ltr",
          "code":"vi"
        }
      ],
      "voices":[
        {
          "gender":"female",
          "locale":"en-AU",
          "displayName":"Catherine",
          "regionName":"Australia",
          "region":"AU",
          "nativeRegionName":"Australia",
          "voice":"en-AU-Catherine",
          "shortName":"en-AU-Catherine"
        },
        {
          "gender":"male",
          "locale":"en-AU",
          "displayName":"James",
          "regionName":"Australia",
          "region":"AU",
          "nativeRegionName":"Australia",
          "voice":"en-AU-James",
          "shortName":"en-AU-James"
        },
        {
          "gender":"female",
          "locale":"en-CA",
          "displayName":"Linda",
          "regionName":"Canada",
          "region":"CA",
          "nativeRegionName":"Canada",
          "voice":"en-CA-Linda",
          "shortName":"en-CA-Linda"
        },
        {
          "gender":"male",
          "locale":"en-CA",
          "displayName":"Richard",
          "regionName":"Canada",
          "region":"CA",
          "nativeRegionName":"Canada",
          "voice":"en-CA-Richard",
          "shortName":"en-CA-Richard"
        },
        {
          "gender":"male",
          "locale":"en-GB",
          "displayName":"George",
          "regionName":"United Kingdom",
          "region":"GB",
          "nativeRegionName":"United Kingdom",
          "voice":"en-GB-George",
          "shortName":"en-GB-George-Apollo"
        },
        {
          "gender":"female",
          "locale":"en-GB",
          "displayName":"Susan",
          "regionName":"United Kingdom",
          "region":"GB",
          "nativeRegionName":"United Kingdom",
          "voice":"en-GB-Susan",
          "shortName":"en-GB-Susan-Apollo"
        },
        {
          "gender":"male",
          "locale":"en-IE",
          "displayName":"Sean",
          "regionName":"Ireland",
          "region":"IE",
          "nativeRegionName":"Ireland",
          "voice":"en-IE-Sean",
          "shortName":"en-IE-Sean"
        },
        {
          "gender":"female",
          "locale":"en-IN",
          "displayName":"Heera",
          "regionName":"India",
          "region":"IN",
          "nativeRegionName":"India",
          "voice":"en-IN-Heera",
          "shortName":"en-IN-Heera-Apollo"
        },
        {
          "gender":"male",
          "locale":"en-IN",
          "displayName":"Ravi",
          "regionName":"India",
          "region":"IN",
          "nativeRegionName":"India",
          "voice":"en-IN-Ravi",
          "shortName":"en-IN-Ravi-Apollo"
        },
        {
          "gender":"male",
          "locale":"en-US",
          "displayName":"BenjaminRUS",
          "regionName":"United States",
          "region":"US",
          "nativeRegionName":"United States",
          "voice":"en-US-BenjaminRUS",
          "shortName":"en-US-BenjaminRUS"
        },
        {
          "gender":"female",
          "locale":"en-US",
          "displayName":"JessaRUS",
          "regionName":"United States",
          "region":"US",
          "nativeRegionName":"United States",
          "voice":"en-US-JessaRUS",
          "shortName":"en-US-JessaRUS"
        },
        {
          "gender":"male",
          "locale":"en-US",
          "displayName":"Mark",
          "regionName":"United States",
          "region":"US",
          "nativeRegionName":"United States",
          "voice":"en-US-Mark",
          "shortName":"en-US-Mark-Apollo"
        },
        {
          "gender":"female",
          "locale":"en-US",
          "displayName":"Zira",
          "regionName":"United States",
          "region":"US",
          "nativeRegionName":"United States",
          "voice":"en-US-Zira",
          "shortName":"en-US-Zira-Apollo"
        },
        {
          "gender":"female",
          "locale":"en-US",
          "displayName":"ZiraRUS",
          "regionName":"United States",
          "region":"US",
          "nativeRegionName":"United States",
          "voice":"en-US-ZiraRUS",
          "shortName":"en-US-ZiraRUS"
        }
      ],
      "speechRegions":[
        {
          "code":"US",
          "name":"United States",
          "nativeName":"United States"
        },
        {
          "code":"AU",
          "name":"Australia",
          "nativeName":"Australia"
        },
        {
          "code":"CA",
          "name":"Canada",
          "nativeName":"Canada"
        },
        {
          "code":"GB",
          "name":"United Kingdom",
          "nativeName":"United Kingdom"
        },
        {
          "code":"IN",
          "name":"India",
          "nativeName":"India"
        },
        {
          "code":"NZ",
          "name":"New Zealand",
          "nativeName":"New Zealand"
        }
      ]
    },
    "es":{
      "name":"Spanish",
      "nativeName":"Español",
      "dir":"ltr",
      "scripts":null,
      "translation":true,
      "speech":true,
      "truetext":true,
      "conversationalSpeech":true,
      "customizableSpeech":false,
      "speechCode":"es-ES",
      "dictionaries":[
        {
          "name":"English",
          "nativeName":"English",
          "dir":"ltr",
          "code":"en"
        }
      ],
      "voices":[
        {
          "gender":"female",
          "locale":"es-ES",
          "displayName":"Laura",
          "regionName":"Spain",
          "region":"ES",
          "nativeRegionName":"España",
          "voice":"es-ES-Laura",
          "shortName":"es-ES-Laura-Apollo"
        },
        {
          "gender":"male",
          "locale":"es-ES",
          "displayName":"Pablo",
          "regionName":"Spain",
          "region":"ES",
          "nativeRegionName":"España",
          "voice":"es-ES-Pablo",
          "shortName":"es-ES-Pablo-Apollo"
        },
        {
          "gender":"male",
          "locale":"es-MX",
          "displayName":"Raul",
          "regionName":"Mexico",
          "region":"MX",
          "nativeRegionName":"México",
          "voice":"es-MX-Raul",
          "shortName":"es-MX-Raul-Apollo"
        },
        {
          "gender":"female",
          "locale":"es-MX",
          "displayName":"Sabina",
          "regionName":"Mexico",
          "region":"MX",
          "nativeRegionName":"México",
          "voice":"es-MX-Sabina",
          "shortName":"es-MX-Sabina-Apollo"
        }
      ],
      "speechRegions":[
        {
          "code":"ES",
          "name":"Spain",
          "nativeName":"España"
        },
        {
          "code":"MX",
          "name":"Mexico",
          "nativeName":"México"
        }
      ]
    },
    "et":{
      "name":"Estonian",
      "nativeName":"Eesti",
      "dir":"ltr",
      "scripts":null,
      "translation":true,
      "speech":false,
      "truetext":false,
      "conversationalSpeech":false,
      "customizableSpeech":false,
      "dictionaries":[
        {
          "name":"English",
          "nativeName":"English",
          "dir":"ltr",
          "code":"en"
        }
      ],
      "voices":null,
      "speechRegions":null
    },
    "fa":{
      "name":"Persian",
      "nativeName":"Persian",
      "dir":"rtl",
      "scripts":[
        {
          "code":"Arab",
          "name":"Arabic",
          "nativeName":"‏‏عربي",
          "dir":"rtl",
          "toScripts":[
            {
              "code":"Latn",
              "name":"Latin",
              "nativeName":"لاتین",
              "dir":"ltr"
            }
          ]
        },
        {
          "code":"Latn",
          "name":"Latin",
          "nativeName":"لاتین",
          "dir":"ltr",
          "toScripts":[
            {
              "code":"Arab",
              "name":"Arabic",
              "nativeName":"‏‏عربي",
              "dir":"rtl"
            }
          ]
        }
      ],
      "translation":true,
      "speech":false,
      "truetext":false,
      "conversationalSpeech":false,
      "customizableSpeech":false,
      "dictionaries":[
        {
          "name":"English",
          "nativeName":"English",
          "dir":"ltr",
          "code":"en"
        }
      ],
      "voices":null,
      "speechRegions":null
    },
    "fi":{
      "name":"Finnish",
      "nativeName":"Suomi",
      "dir":"ltr",
      "scripts":null,
      "translation":true,
      "speech":true,
      "truetext":false,
      "conversationalSpeech":false,
      "customizableSpeech":false,
      "speechCode":"fi-FI",
      "dictionaries":[
        {
          "name":"English",
          "nativeName":"English",
          "dir":"ltr",
          "code":"en"
        }
      ],
      "voices":[
        {
          "gender":"female",
          "locale":"fi-FI",
          "displayName":"Heidi",
          "regionName":"Finland",
          "region":"FI",
          "nativeRegionName":"Suomi",
          "voice":"fi-FI-Heidi",
          "shortName":"fi-FI-Heidi"
        }
      ],
      "speechRegions":[
        {
          "code":"FI",
          "name":"Finland",
          "nativeName":"Suomi"
        }
      ]
    },
    "fil":{
      "name":"Filipino",
      "nativeName":"Filipino",
      "dir":"ltr",
      "scripts":null,
      "translation":true,
      "speech":false,
      "truetext":false,
      "conversationalSpeech":false,
      "customizableSpeech":false,
      "voices":null,
      "speechRegions":null
    },
    "fj":{
      "name":"Fijian",
      "nativeName":"Fijian",
      "dir":"ltr",
      "scripts":null,
      "translation":true,
      "speech":false,
      "truetext":false,
      "conversationalSpeech":false,
      "customizableSpeech":false,
      "voices":null,
      "speechRegions":null
    },
    "fr":{
      "name":"French",
      "nativeName":"Français",
      "dir":"ltr",
      "scripts":null,
      "translation":true,
      "speech":true,
      "truetext":true,
      "conversationalSpeech":true,
      "customizableSpeech":false,
      "speechCode":"fr-FR",
      "dictionaries":[
        {
          "name":"English",
          "nativeName":"English",
          "dir":"ltr",
          "code":"en"
        }
      ],
      "voices":[
        {
          "gender":"female",
          "locale":"fr-FR",
          "displayName":"Julie",
          "regionName":"France",
          "region":"FR",
          "nativeRegionName":"France",
          "voice":"fr-FR-Julie",
          "shortName":"fr-FR-Julie-Apollo"
        },
        {
          "gender":"male",
          "locale":"fr-FR",
          "displayName":"Paul",
          "regionName":"France",
          "region":"FR",
          "nativeRegionName":"France",
          "voice":"fr-FR-Paul",
          "shortName":"fr-FR-Paul-Apollo"
        }
      ],
      "speechRegions":[
        {
          "code":"FR",
          "name":"France",
          "nativeName":"France"
        }
      ]
    },
    "fr-ca":{
      "name":"French (Canada)",
      "nativeName":"French (Canada)",
      "dir":"ltr",
      "scripts":null,
      "translation":true,
      "speech":true,
      "truetext":true,
      "conversationalSpeech":true,
      "customizableSpeech":false,
      "speechCode":"fr-CA",
      "voices":[
        {
          "gender":"female",
          "locale":"fr-CA",
          "displayName":"Caroline",
          "regionName":"Canada",
          "region":"CA",
          "nativeRegionName":"Canada",
          "voice":"fr-CA-Caroline",
          "shortName":"fr-CA-Caroline"
        },
        {
          "gender":"male",
          "locale":"fr-CA",
          "displayName":"Claude",
          "regionName":"Canada",
          "region":"CA",
          "nativeRegionName":"Canada",
          "voice":"fr-CA-Claude",
          "shortName":"fr-CA-Claude"
        }
      ],
      "speechRegions":[
        {
          "code":"CA",
          "name":"Canada",
          "nativeName":"Canada"
        }
      ]
    },
    "ga":{
      "name":"Irish",
      "nativeName":"Gaeilge",
      "dir":"ltr",
      "scripts":null,
      "translation":true,
      "speech":false,
      "truetext":false,
      "conversationalSpeech":false,
      "customizableSpeech":false,
      "voices":null,
      "speechRegions":null
    },
    "gu":{
      "name":"Gujarati",
      "nativeName":"ગુજરાતી",
      "dir":"ltr",
      "scripts":[
        {
          "code":"Gujr",
          "name":"Gujarati",
          "nativeName":"Gujarati",
          "dir":"ltr",
          "toScripts":[
            {
              "code":"Latn",
              "name":"Latin",
              "nativeName":"Latin",
              "dir":"ltr"
            }
          ]
        },
        {
          "code":"Latn",
          "name":"Latin",
          "nativeName":"Latin",
          "dir":"ltr",
          "toScripts":[
            {
              "code":"Gujr",
              "name":"Gujarati",
              "nativeName":"Gujarati",
              "dir":"ltr"
            }
          ]
        }
      ],
      "translation":true,
      "speech":true,
      "truetext":false,
      "conversationalSpeech":false,
      "customizableSpeech":false,
      "speechCode":"gu-IN",
      "voices":null,
      "speechRegions":[
        {
          "code":"IN",
          "name":"India",
          "nativeName":"ભારત"
        }
      ]
    },
    "he":{
      "name":"Hebrew",
      "nativeName":"עברית",
      "dir":"rtl",
      "scripts":[
        {
          "code":"Hebr",
          "name":"Hebrew",
          "nativeName":"עברית",
          "dir":"rtl",
          "toScripts":[
            {
              "code":"Latn",
              "name":"Latin",
              "nativeName":"לטינית",
              "dir":"ltr"
            }
          ]
        },
        {
          "code":"Latn",
          "name":"Latin",
          "nativeName":"לטינית",
          "dir":"ltr",
          "toScripts":[
            {
              "code":"Hebr",
              "name":"Hebrew",
              "nativeName":"עברית",
              "dir":"rtl"
            }
          ]
        }
      ],
      "translation":true,
      "speech":false,
      "truetext":false,
      "conversationalSpeech":false,
      "customizableSpeech":false,
      "dictionaries":[
        {
          "name":"English",
          "nativeName":"English",
          "dir":"ltr",
          "code":"en"
        }
      ],
      "voices":[
        {
          "gender":"male",
          "locale":"he-IL",
          "displayName":"Asaf",
          "regionName":"Israel",
          "region":"IL",
          "nativeRegionName":"ישראל",
          "voice":"he-IL-Asaf",
          "shortName":"he-IL-Asaf"
        }
      ],
      "speechRegions":null
    },
    "hi":{
      "name":"Hindi",
      "nativeName":"हिंदी",
      "dir":"ltr",
      "scripts":[
        {
          "code":"Deva",
          "name":"Devanagari",
          "nativeName":"देवनागरी",
          "dir":"ltr",
          "toScripts":[
            {
              "code":"Latn",
              "name":"Latin",
              "nativeName":"लैटिन",
              "dir":"ltr"
            }
          ]
        },
        {
          "code":"Latn",
          "name":"Latin",
          "nativeName":"लैटिन",
          "dir":"ltr",
          "toScripts":[
            {
              "code":"Deva",
              "name":"Devanagari",
              "nativeName":"देवनागरी",
              "dir":"ltr"
            }
          ]
        }
      ],
      "translation":true,
      "speech":true,
      "truetext":true,
      "conversationalSpeech":true,
      "customizableSpeech":false,
      "speechCode":"hi-IN",
      "dictionaries":[
        {
          "name":"English",
          "nativeName":"English",
          "dir":"ltr",
          "code":"en"
        }
      ],
      "voices":[
        {
          "gender":"male",
          "locale":"hi-IN",
          "displayName":"Hemant",
          "regionName":"India",
          "region":"IN",
          "nativeRegionName":"भारत",
          "voice":"hi-IN-Hemant",
          "shortName":"hi-IN-Hemant"
        },
        {
          "gender":"female",
          "locale":"hi-IN",
          "displayName":"Kalpana",
          "regionName":"India",
          "region":"IN",
          "nativeRegionName":"भारत",
          "voice":"hi-IN-Kalpana",
          "shortName":"hi-IN-Kalpana-Apollo"
        }
      ],
      "speechRegions":[
        {
          "code":"IN",
          "name":"India",
          "nativeName":"भारत"
        }
      ]
    },
    "hr":{
      "name":"Croatian",
      "nativeName":"Hrvatski",
      "dir":"ltr",
      "scripts":null,
      "translation":true,
      "speech":false,
      "truetext":false,
      "conversationalSpeech":false,
      "customizableSpeech":false,
      "dictionaries":[
        {
          "name":"English",
          "nativeName":"English",
          "dir":"ltr",
          "code":"en"
        }
      ],
      "voices":[
        {
          "gender":"male",
          "locale":"hr-HR",
          "displayName":"Matej",
          "regionName":"Croatia",
          "region":"HR",
          "nativeRegionName":"Hrvatska",
          "voice":"hr-HR-Matej",
          "shortName":"hr-HR-Matej"
        }
      ],
      "speechRegions":null
    },
    "ht":{
      "name":"Haitian Creole",
      "nativeName":"Haitian Creole",
      "dir":"ltr",
      "scripts":null,
      "translation":true,
      "speech":false,
      "truetext":false,
      "conversationalSpeech":false,
      "customizableSpeech":false,
      "dictionaries":[
        {
          "name":"English",
          "nativeName":"English",
          "dir":"ltr",
          "code":"en"
        }
      ],
      "voices":null,
      "speechRegions":null
    },
    "hu":{
      "name":"Hungarian",
      "nativeName":"Magyar",
      "dir":"ltr",
      "scripts":null,
      "translation":true,
      "speech":false,
      "truetext":false,
      "conversationalSpeech":false,
      "customizableSpeech":false,
      "dictionaries":[
        {
          "name":"English",
          "nativeName":"English",
          "dir":"ltr",
          "code":"en"
        }
      ],
      "voices":[
        {
          "gender":"male",
          "locale":"hu-HU",
          "displayName":"Szabolcs",
          "regionName":"Hungary",
          "region":"HU",
          "nativeRegionName":"Magyarország",
          "voice":"hu-HU-Szabolcs",
          "shortName":"hu-HU-Szabolcs"
        }
      ],
      "speechRegions":null
    },
    "id":{
      "name":"Indonesian",
      "nativeName":"Indonesia",
      "dir":"ltr",
      "scripts":null,
      "translation":true,
      "speech":false,
      "truetext":false,
      "conversationalSpeech":false,
      "customizableSpeech":false,
      "dictionaries":[
        {
          "name":"English",
          "nativeName":"English",
          "dir":"ltr",
          "code":"en"
        }
      ],
      "voices":[
        {
          "gender":"male",
          "locale":"id-ID",
          "displayName":"Andika",
          "regionName":"Indonesia",
          "region":"ID",
          "nativeRegionName":"Indonesia",
          "voice":"id-ID-Andika",
          "shortName":"id-ID-Andika"
        }
      ],
      "speechRegions":null
    },
    "is":{
      "name":"Icelandic",
      "nativeName":"Íslenska",
      "dir":"ltr",
      "scripts":null,
      "translation":true,
      "speech":false,
      "truetext":false,
      "conversationalSpeech":false,
      "customizableSpeech":false,
      "dictionaries":[
        {
          "name":"English",
          "nativeName":"English",
          "dir":"ltr",
          "code":"en"
        }
      ],
      "voices":null,
      "speechRegions":null
    },
    "it":{
      "name":"Italian",
      "nativeName":"Italiano",
      "dir":"ltr",
      "scripts":null,
      "translation":true,
      "speech":true,
      "truetext":true,
      "conversationalSpeech":true,
      "customizableSpeech":false,
      "speechCode":"it-IT",
      "dictionaries":[
        {
          "name":"English",
          "nativeName":"English",
          "dir":"ltr",
          "code":"en"
        }
      ],
      "voices":[
        {
          "gender":"male",
          "locale":"it-IT",
          "displayName":"Cosimo",
          "regionName":"Italy",
          "region":"IT",
          "nativeRegionName":"Italia",
          "voice":"it-IT-Cosimo",
          "shortName":"it-IT-Cosimo-Apollo"
        },
        {
          "gender":"female",
          "locale":"it-IT",
          "displayName":"Elsa",
          "regionName":"Italy",
          "region":"IT",
          "nativeRegionName":"Italia",
          "voice":"it-IT-Elsa",
          "shortName":"it-IT-Elsa-Apollo"
        }
      ],
      "speechRegions":[
        {
          "code":"IT",
          "name":"Italy",
          "nativeName":"Italia"
        }
      ]
    },
    "ja":{
      "name":"Japanese",
      "nativeName":"日本語",
      "dir":"ltr",
      "scripts":[
        {
          "code":"Jpan",
          "name":"Japanese",
          "nativeName":"日本語",
          "dir":"ltr",
          "toScripts":[
            {
              "code":"Latn",
              "name":"Latin",
              "nativeName":"ラテン語",
              "dir":"ltr"
            }
          ]
        },
        {
          "code":"Latn",
          "name":"Latin",
          "nativeName":"ラテン語",
          "dir":"ltr",
          "toScripts":[
            {
              "code":"Jpan",
              "name":"Japanese",
              "nativeName":"日本語",
              "dir":"ltr"
            }
          ]
        }
      ],
      "translation":true,
      "speech":true,
      "truetext":true,
      "conversationalSpeech":true,
      "customizableSpeech":false,
      "speechCode":"ja-JP",
      "dictionaries":[
        {
          "name":"English",
          "nativeName":"English",
          "dir":"ltr",
          "code":"en"
        }
      ],
      "voices":[
        {
          "gender":"female",
          "locale":"ja-JP",
          "displayName":"Ayumi",
          "regionName":"Japan",
          "region":"JP",
          "nativeRegionName":"日本",
          "voice":"ja-JP-Ayumi",
          "shortName":"ja-JP-Ayumi-Apollo"
        },
        {
          "gender":"male",
          "locale":"ja-JP",
          "displayName":"Ichiro",
          "regionName":"Japan",
          "region":"JP",
          "nativeRegionName":"日本",
          "voice":"ja-JP-Ichiro",
          "shortName":"ja-JP-Ichiro-Apollo"
        },
        {
          "gender":"female",
          "locale":"ja-JP",
          "displayName":"Watanabe",
          "regionName":"Japan",
          "region":"JP",
          "nativeRegionName":"日本",
          "voice":"ja-JP-Watanabe",
          "shortName":"ja-JP-Watanabe"
        }
      ],
      "speechRegions":[
        {
          "code":"JP",
          "name":"Japan",
          "nativeName":"日本"
        }
      ]
    },
    "kk":{
      "name":"Kazakh",
      "nativeName":"Kazakh",
      "dir":"ltr",
      "scripts":[
        {
          "code":"Cyrl",
          "name":"Cyrillic",
          "nativeName":"Cyrillic",
          "dir":"ltr",
          "toScripts":[
            {
              "code":"Latn",
              "name":"Latin",
              "nativeName":"Latin",
              "dir":"ltr"
            }
          ]
        },
        {
          "code":"Latn",
          "name":"Latin",
          "nativeName":"Latin",
          "dir":"ltr",
          "toScripts":[
            {
              "code":"Cyrl",
              "name":"Cyrillic",
              "nativeName":"Cyrillic",
              "dir":"ltr"
            }
          ]
        }
      ],
      "translation":true,
      "speech":false,
      "truetext":false,
      "conversationalSpeech":false,
      "customizableSpeech":false,
      "voices":null,
      "speechRegions":null
    },
    "kmr":{
      "name":"Kurdish (Northern)",
      "nativeName":"Kurdish (Northern)",
      "dir":"ltr",
      "scripts":null,
      "translation":true,
      "speech":false,
      "truetext":false,
      "conversationalSpeech":false,
      "customizableSpeech":false,
      "voices":null,
      "speechRegions":null
    },
    "kn":{
      "name":"Kannada",
      "nativeName":"ಕನ್ನಡ",
      "dir":"ltr",
      "scripts":[
        {
          "code":"Knda",
          "name":"Kannada",
          "nativeName":"Kannada",
          "dir":"ltr",
          "toScripts":[
            {
              "code":"Latn",
              "name":"Latin",
              "nativeName":"Latin",
              "dir":"ltr"
            }
          ]
        },
        {
          "code":"Latn",
          "name":"Latin",
          "nativeName":"Latin",
          "dir":"ltr",
          "toScripts":[
            {
              "code":"Knda",
              "name":"Kannada",
              "nativeName":"Kannada",
              "dir":"ltr"
            }
          ]
        }
      ],
      "translation":true,
      "speech":false,
      "truetext":false,
      "conversationalSpeech":false,
      "customizableSpeech":false,
      "voices":null,
      "speechRegions":null
    },
    "ko":{
      "name":"Korean",
      "nativeName":"한국어",
      "dir":"ltr",
      "scripts":null,
      "translation":true,
      "speech":true,
      "truetext":false,
      "conversationalSpeech":false,
      "customizableSpeech":false,
      "speechCode":"ko-KR",
      "dictionaries":[
        {
          "name":"English",
          "nativeName":"English",
          "dir":"ltr",
          "code":"en"
        }
      ],
      "voices":[
        {
          "gender":"male",
          "locale":"ko-KR",
          "displayName":"Minjoon",
          "regionName":"Korea",
          "region":"KR",
          "nativeRegionName":"대한민국",
          "voice":"ko-KR-Minjoon",
          "shortName":"ko-KR-Minjoon"
        },
        {
          "gender":"female",
          "locale":"ko-KR",
          "displayName":"Seohyun",
          "regionName":"Korea",
          "region":"KR",
          "nativeRegionName":"대한민국",
          "voice":"ko-KR-Seohyun",
          "shortName":"ko-KR-Seohyun"
        }
      ],
      "speechRegions":[
        {
          "code":"KR",
          "name":"Korea",
          "nativeName":"대한민국"
        }
      ]
    },
    "ku":{
      "name":"Kurdish (Central)",
      "nativeName":"Kurdish (Central)",
      "dir":"rtl",
      "scripts":null,
      "translation":true,
      "speech":false,
      "truetext":false,
      "conversationalSpeech":false,
      "customizableSpeech":false,
      "voices":null,
      "speechRegions":null
    },
    "ky":{
      "name":"Kyrgyz",
      "nativeName":"Kyrgyz",
      "dir":"ltr",
      "scripts":[
        {
          "code":"Cyrl",
          "name":"Cyrillic",
          "nativeName":"Cyrillic",
          "dir":"ltr",
          "toScripts":[
            {
              "code":"Latn",
              "name":"Latin",
              "nativeName":"Latin",
              "dir":"ltr"
            }
          ]
        },
        {
          "code":"Latn",
          "name":"Latin",
          "nativeName":"Latin",
          "dir":"ltr",
          "toScripts":[
            {
              "code":"Cyrl",
              "name":"Cyrillic",
              "nativeName":"Cyrillic",
              "dir":"ltr"
            }
          ]
        }
      ],
      "translation":false,
      "speech":false,
      "truetext":false,
      "conversationalSpeech":false,
      "customizableSpeech":false,
      "voices":null,
      "speechRegions":null
    },
    "lt":{
      "name":"Lithuanian",
      "nativeName":"Lietuvių",
      "dir":"ltr",
      "scripts":null,
      "translation":true,
      "speech":false,
      "truetext":false,
      "conversationalSpeech":false,
      "customizableSpeech":false,
      "dictionaries":[
        {
          "name":"English",
          "nativeName":"English",
          "dir":"ltr",
          "code":"en"
        }
      ],
      "voices":null,
      "speechRegions":null
    },
    "lv":{
      "name":"Latvian",
      "nativeName":"Latviešu",
      "dir":"ltr",
      "scripts":null,
      "translation":true,
      "speech":false,
      "truetext":false,
      "conversationalSpeech":false,
      "customizableSpeech":false,
      "dictionaries":[
        {
          "name":"English",
          "nativeName":"English",
          "dir":"ltr",
          "code":"en"
        }
      ],
      "voices":null,
      "speechRegions":null
    },
    "mg":{
      "name":"Malagasy",
      "nativeName":"Malagasy",
      "dir":"ltr",
      "scripts":null,
      "translation":true,
      "speech":false,
      "truetext":false,
      "conversationalSpeech":false,
      "customizableSpeech":false,
      "voices":null,
      "speechRegions":null
    },
    "mi":{
      "name":"Maori",
      "nativeName":"Māori",
      "dir":"ltr",
      "scripts":null,
      "translation":true,
      "speech":false,
      "truetext":false,
      "conversationalSpeech":false,
      "customizableSpeech":false,
      "voices":null,
      "speechRegions":null
    },
    "ml":{
      "name":"Malayalam",
      "nativeName":"മലയാളം",
      "dir":"ltr",
      "scripts":[
        {
          "code":"Mlym",
          "name":"Malayalam",
          "nativeName":"Malayalam",
          "dir":"ltr",
          "toScripts":[
            {
              "code":"Latn",
              "name":"Latin",
              "nativeName":"Latin",
              "dir":"ltr"
            }
          ]
        },
        {
          "code":"Latn",
          "name":"Latin",
          "nativeName":"Latin",
          "dir":"ltr",
          "toScripts":[
            {
              "code":"Mlym",
              "name":"Malayalam",
              "nativeName":"Malayalam",
              "dir":"ltr"
            }
          ]
        }
      ],
      "translation":true,
      "speech":false,
      "truetext":false,
      "conversationalSpeech":false,
      "customizableSpeech":false,
      "voices":null,
      "speechRegions":null
    },
    "mn":{
      "name":"Mongolian",
      "nativeName":"Mongolian",
      "dir":"ltr",
      "scripts":[
        {
          "code":"Cyrl",
          "name":"Cyrillic",
          "nativeName":"Cyrillic",
          "dir":"ltr",
          "toScripts":[
            {
              "code":"Latn",
              "name":"Latin",
              "nativeName":"Latin",
              "dir":"ltr"
            }
          ]
        },
        {
          "code":"Latn",
          "name":"Latin",
          "nativeName":"Latin",
          "dir":"ltr",
          "toScripts":[
            {
              "code":"Cyrl",
              "name":"Cyrillic",
              "nativeName":"Cyrillic",
              "dir":"ltr"
            }
          ]
        }
      ],
      "translation":false,
      "speech":false,
      "truetext":false,
      "conversationalSpeech":false,
      "customizableSpeech":false,
      "voices":null,
      "speechRegions":null
    },
    "mr":{
      "name":"Marathi",
      "nativeName":"मराठी",
      "dir":"ltr",
      "scripts":[
        {
          "code":"Deva",
          "name":"Devanagari",
          "nativeName":"Devanagari",
          "dir":"ltr",
          "toScripts":[
            {
              "code":"Latn",
              "name":"Latin",
              "nativeName":"Latin",
              "dir":"ltr"
            }
          ]
        },
        {
          "code":"Latn",
          "name":"Latin",
          "nativeName":"Latin",
          "dir":"ltr",
          "toScripts":[
            {
              "code":"Deva",
              "name":"Devanagari",
              "nativeName":"Devanagari",
              "dir":"ltr"
            }
          ]
        }
      ],
      "translation":true,
      "speech":true,
      "truetext":false,
      "conversationalSpeech":false,
      "customizableSpeech":false,
      "speechCode":"mr-IN",
      "voices":null,
      "speechRegions":[
        {
          "code":"IN",
          "name":"India",
          "nativeName":"भारत"
        }
      ]
    },
    "ms":{
      "name":"Malay",
      "nativeName":"Melayu",
      "dir":"ltr",
      "scripts":null,
      "translation":true,
      "speech":false,
      "truetext":false,
      "conversationalSpeech":false,
      "customizableSpeech":false,
      "dictionaries":[
        {
          "name":"English",
          "nativeName":"English",
          "dir":"ltr",
          "code":"en"
        }
      ],
      "voices":[
        {
          "gender":"male",
          "locale":"ms-MY",
          "displayName":"Rizwan",
          "regionName":"Malaysia",
          "region":"MY",
          "nativeRegionName":"Malaysia",
          "voice":"ms-MY-Rizwan",
          "shortName":"ms-MY-Rizwan"
        }
      ],
      "speechRegions":null
    },
    "mt":{
      "name":"Maltese",
      "nativeName":"Il-Malti",
      "dir":"ltr",
      "scripts":null,
      "translation":true,
      "speech":false,
      "truetext":false,
      "conversationalSpeech":false,
      "customizableSpeech":false,
      "dictionaries":[
        {
          "name":"English",
          "nativeName":"English",
          "dir":"ltr",
          "code":"en"
        }
      ],
      "voices":null,
      "speechRegions":null
    },
    "mww":{
      "name":"Hmong Daw",
      "nativeName":"Hmong Daw",
      "dir":"ltr",
      "scripts":null,
      "translation":true,
      "speech":false,
      "truetext":false,
      "conversationalSpeech":false,
      "customizableSpeech":false,
      "dictionaries":[
        {
          "name":"English",
          "nativeName":"English",
          "dir":"ltr",
          "code":"en"
        }
      ],
      "voices":null,
      "speechRegions":null
    },
    "nb":{
      "name":"Norwegian",
      "nativeName":"Norsk",
      "dir":"ltr",
      "scripts":null,
      "translation":true,
      "speech":true,
      "truetext":false,
      "conversationalSpeech":false,
      "customizableSpeech":false,
      "speechCode":"nb-NO",
      "dictionaries":[
        {
          "name":"English",
          "nativeName":"English",
          "dir":"ltr",
          "code":"en"
        }
      ],
      "voices":[
        {
          "gender":"male",
          "locale":"nb-NO",
          "displayName":"Jon",
          "regionName":"Norway",
          "region":"NO",
          "nativeRegionName":"Norge",
          "voice":"nb-NO-Jon",
          "shortName":"nb-NO-Jon"
        },
        {
          "gender":"female",
          "locale":"nb-NO",
          "displayName":"Nina",
          "regionName":"Norway",
          "region":"NO",
          "nativeRegionName":"Norge",
          "voice":"nb-NO-Nina",
          "shortName":"nb-NO-Nina"
        }
      ],
      "speechRegions":[
        {
          "code":"NO",
          "name":"Norway",
          "nativeName":"Norge"
        }
      ]
    },
    "nl":{
      "name":"Dutch",
      "nativeName":"Nederlands",
      "dir":"ltr",
      "scripts":null,
      "translation":true,
      "speech":true,
      "truetext":false,
      "conversationalSpeech":false,
      "customizableSpeech":false,
      "speechCode":"nl-NL",
      "dictionaries":[
        {
          "name":"English",
          "nativeName":"English",
          "dir":"ltr",
          "code":"en"
        }
      ],
      "voices":[
        {
          "gender":"male",
          "locale":"nl-NL",
          "displayName":"Frank",
          "regionName":"Netherlands",
          "region":"NL",
          "nativeRegionName":"Nederland",
          "voice":"nl-NL-Frank",
          "shortName":"nl-NL-Frank"
        },
        {
          "gender":"female",
          "locale":"nl-NL",
          "displayName":"Marijke",
          "regionName":"Netherlands",
          "region":"NL",
          "nativeRegionName":"Nederland",
          "voice":"nl-NL-Marijke",
          "shortName":"nl-NL-Marijke"
        }
      ],
      "speechRegions":[
        {
          "code":"NL",
          "name":"Netherlands",
          "nativeName":"Nederland"
        }
      ]
    },
    "or":{
      "name":"Odia",
      "nativeName":"Odia",
      "dir":"ltr",
      "scripts":[
        {
          "code":"Orya",
          "name":"Odia",
          "nativeName":"Odia",
          "dir":"ltr",
          "toScripts":[
            {
              "code":"Latn",
              "name":"Latin",
              "nativeName":"Latin",
              "dir":"ltr"
            }
          ]
        },
        {
          "code":"Latn",
          "name":"Latin",
          "nativeName":"Latin",
          "dir":"ltr",
          "toScripts":[
            {
              "code":"Orya",
              "name":"Odia",
              "nativeName":"Odia",
              "dir":"ltr"
            }
          ]
        }
      ],
      "translation":true,
      "speech":false,
      "truetext":false,
      "conversationalSpeech":false,
      "customizableSpeech":false,
      "voices":null,
      "speechRegions":null
    },
    "otq":{
      "name":"Querétaro Otomi",
      "nativeName":"Querétaro Otomi",
      "dir":"ltr",
      "scripts":null,
      "translation":true,
      "speech":false,
      "truetext":false,
      "conversationalSpeech":false,
      "customizableSpeech":false,
      "voices":null,
      "speechRegions":null
    },
    "pa":{
      "name":"Punjabi",
      "nativeName":"ਪੰਜਾਬੀ",
      "dir":"ltr",
      "scripts":[
        {
          "code":"Guru",
          "name":"Gurmukhi",
          "nativeName":"Gurmukhi",
          "dir":"ltr",
          "toScripts":[
            {
              "code":"Latn",
              "name":"Latin",
              "nativeName":"Latin",
              "dir":"ltr"
            }
          ]
        },
        {
          "code":"Latn",
          "name":"Latin",
          "nativeName":"Latin",
          "dir":"ltr",
          "toScripts":[
            {
              "code":"Guru",
              "name":"Gurmukhi",
              "nativeName":"Gurmukhi",
              "dir":"ltr"
            }
          ]
        }
      ],
      "translation":true,
      "speech":false,
      "truetext":false,
      "conversationalSpeech":false,
      "customizableSpeech":false,
      "voices":null,
      "speechRegions":null
    },
    "pl":{
      "name":"Polish",
      "nativeName":"Polski",
      "dir":"ltr",
      "scripts":null,
      "translation":true,
      "speech":true,
      "truetext":false,
      "conversationalSpeech":false,
      "customizableSpeech":false,
      "speechCode":"pl-PL",
      "dictionaries":[
        {
          "name":"English",
          "nativeName":"English",
          "dir":"ltr",
          "code":"en"
        }
      ],
      "voices":[
        {
          "gender":"male",
          "locale":"pl-PL",
          "displayName":"Adam",
          "regionName":"Poland",
          "region":"PL",
          "nativeRegionName":"Polska",
          "voice":"pl-PL-Adam",
          "shortName":"pl-PL-Adam-Apollo"
        },
        {
          "gender":"female",
          "locale":"pl-PL",
          "displayName":"Paulina",
          "regionName":"Poland",
          "region":"PL",
          "nativeRegionName":"Polska",
          "voice":"pl-PL-Paulina",
          "shortName":"pl-PL-Paulina-Apollo"
        }
      ],
      "speechRegions":[
        {
          "code":"PL",
          "name":"Poland",
          "nativeName":"Polska"
        }
      ]
    },
    "prs":{
      "name":"Dari",
      "nativeName":"Dari",
      "dir":"rtl",
      "scripts":null,
      "translation":true,
      "speech":false,
      "truetext":false,
      "conversationalSpeech":false,
      "customizableSpeech":false,
      "voices":null,
      "speechRegions":null
    },
    "ps":{
      "name":"Pashto",
      "nativeName":"Pashto",
      "dir":"rtl",
      "scripts":null,
      "translation":true,
      "speech":false,
      "truetext":false,
      "conversationalSpeech":false,
      "customizableSpeech":false,
      "voices":null,
      "speechRegions":null
    },
    "pt":{
      "name":"Portuguese (Brazil)",
      "nativeName":"Português (Brasil)",
      "dir":"ltr",
      "scripts":null,
      "translation":true,
      "speech":true,
      "truetext":true,
      "conversationalSpeech":true,
      "customizableSpeech":false,
      "speechCode":"pt-BR",
      "dictionaries":[
        {
          "name":"English",
          "nativeName":"English",
          "dir":"ltr",
          "code":"en"
        }
      ],
      "voices":[
        {
          "gender":"male",
          "locale":"pt-BR",
          "displayName":"Daniel",
          "regionName":"Brazil",
          "region":"BR",
          "nativeRegionName":"Brasil",
          "voice":"pt-BR-Daniel",
          "shortName":"pt-BR-Daniel-Apollo"
        },
        {
          "gender":"female",
          "locale":"pt-BR",
          "displayName":"Maria",
          "regionName":"Brazil",
          "region":"BR",
          "nativeRegionName":"Brasil",
          "voice":"pt-BR-Maria",
          "shortName":"pt-BR-Maria-Apollo"
        }
      ],
      "speechRegions":[
        {
          "code":"BR",
          "name":"Brazil",
          "nativeName":"Brasil"
        }
      ]
    },
    "pt-pt":{
      "name":"Portuguese (Portugal)",
      "nativeName":"Português (Portugal)",
      "dir":"ltr",
      "scripts":null,
      "translation":true,
      "speech":true,
      "truetext":true,
      "conversationalSpeech":false,
      "customizableSpeech":false,
      "speechCode":"pt-PT",
      "voices":[
        {
          "gender":"female",
          "locale":"pt-PT",
          "displayName":"Helia",
          "regionName":"Portugal",
          "region":"PT",
          "nativeRegionName":"Portugal",
          "voice":"pt-PT-Helia",
          "shortName":"pt-PT-Helia"
        }
      ],
      "speechRegions":[
        {
          "code":"PT",
          "name":"Portugal",
          "nativeName":"Portugal"
        }
      ]
    },
    "ro":{
      "name":"Romanian",
      "nativeName":"Română",
      "dir":"ltr",
      "scripts":null,
      "translation":true,
      "speech":false,
      "truetext":false,
      "conversationalSpeech":false,
      "customizableSpeech":false,
      "dictionaries":[
        {
          "name":"English",
          "nativeName":"English",
          "dir":"ltr",
          "code":"en"
        }
      ],
      "voices":[
        {
          "gender":"male",
          "locale":"ro-RO",
          "displayName":"Andrei",
          "regionName":"Romania",
          "region":"RO",
          "nativeRegionName":"România",
          "voice":"ro-RO-Andrei",
          "shortName":"ro-RO-Andrei"
        }
      ],
      "speechRegions":null
    },
    "ru":{
      "name":"Russian",
      "nativeName":"Русский",
      "dir":"ltr",
      "scripts":null,
      "translation":true,
      "speech":true,
      "truetext":true,
      "conversationalSpeech":true,
      "customizableSpeech":false,
      "speechCode":"ru-RU",
      "dictionaries":[
        {
          "name":"English",
          "nativeName":"English",
          "dir":"ltr",
          "code":"en"
        }
      ],
      "voices":[
        {
          "gender":"female",
          "locale":"ru-RU",
          "displayName":"Irina",
          "regionName":"Russia",
          "region":"RU",
          "nativeRegionName":"Россия",
          "voice":"ru-RU-Irina",
          "shortName":"ru-RU-Irina-Apollo"
        },
        {
          "gender":"male",
          "locale":"ru-RU",
          "displayName":"Pavel",
          "regionName":"Russia",
          "region":"RU",
          "nativeRegionName":"Россия",
          "voice":"ru-RU-Pavel",
          "shortName":"ru-RU-Pavel-Apollo"
        }
      ],
      "speechRegions":[
        {
          "code":"RU",
          "name":"Russia",
          "nativeName":"Россия"
        }
      ]
    },
    "sd":{
      "name":"Sindhi",
      "nativeName":"Sindhi",
      "dir":"ltr",
      "scripts":[
        {
          "code":"Arab",
          "name":"Arabic",
          "nativeName":"Arabic",
          "dir":"ltr",
          "toScripts":[
            {
              "code":"Latn",
              "name":"Latin",
              "nativeName":"Latin",
              "dir":"ltr"
            }
          ]
        },
        {
          "code":"Latn",
          "name":"Latin",
          "nativeName":"Latin",
          "dir":"ltr",
          "toScripts":[
            {
              "code":"Arab",
              "name":"Arabic",
              "nativeName":"Arabic",
              "dir":"ltr"
            }
          ]
        }
      ],
      "translation":false,
      "speech":false,
      "truetext":false,
      "conversationalSpeech":false,
      "customizableSpeech":false,
      "voices":null,
      "speechRegions":null
    },
    "sk":{
      "name":"Slovak",
      "nativeName":"Slovenčina",
      "dir":"ltr",
      "scripts":null,
      "translation":true,
      "speech":false,
      "truetext":false,
      "conversationalSpeech":false,
      "customizableSpeech":false,
      "dictionaries":[
        {
          "name":"English",
          "nativeName":"English",
          "dir":"ltr",
          "code":"en"
        }
      ],
      "voices":[
        {
          "gender":"male",
          "locale":"sk-SK",
          "displayName":"Filip",
          "regionName":"Slovakia",
          "region":"SK",
          "nativeRegionName":"Slovensko",
          "voice":"sk-SK-Filip",
          "shortName":"sk-SK-Filip"
        }
      ],
      "speechRegions":null
    },
    "sl":{
      "name":"Slovenian",
      "nativeName":"Slovenščina",
      "dir":"ltr",
      "scripts":null,
      "translation":true,
      "speech":false,
      "truetext":false,
      "conversationalSpeech":false,
      "customizableSpeech":false,
      "dictionaries":[
        {
          "name":"English",
          "nativeName":"English",
          "dir":"ltr",
          "code":"en"
        }
      ],
      "voices":[
        {
          "gender":"male",
          "locale":"sl-SI",
          "displayName":"Lado",
          "regionName":"Slovenia",
          "region":"SI",
          "nativeRegionName":"Slovenija",
          "voice":"sl-SI-Lado",
          "shortName":"sl-SI-Lado"
        }
      ],
      "speechRegions":null
    },
    "sm":{
      "name":"Samoan",
      "nativeName":"Samoan",
      "dir":"ltr",
      "scripts":null,
      "translation":true,
      "speech":false,
      "truetext":false,
      "conversationalSpeech":false,
      "customizableSpeech":false,
      "voices":null,
      "speechRegions":null
    },
    "sr-Cyrl":{
      "name":"Serbian (Cyrillic)",
      "nativeName":"srpski (ćirilica)",
      "dir":"ltr",
      "scripts":[
        {
          "code":"Cyrl",
          "name":"Cyrillic",
          "nativeName":"Cyrillic",
          "dir":"ltr",
          "toScripts":[
            {
              "code":"Latn",
              "name":"Latin",
              "nativeName":"Latinski",
              "dir":"ltr"
            }
          ]
        }
      ],
      "translation":true,
      "speech":false,
      "truetext":false,
      "conversationalSpeech":false,
      "customizableSpeech":false,
      "voices":null,
      "speechRegions":null
    },
    "sr-Latn":{
      "name":"Serbian (Latin)",
      "nativeName":"srpski (latinica)",
      "dir":"ltr",
      "scripts":[
        {
          "code":"Latn",
          "name":"Latin",
          "nativeName":"Latinski",
          "dir":"ltr",
          "toScripts":[
            {
              "code":"Cyrl",
              "name":"Cyrillic",
              "nativeName":"Ćirilica",
              "dir":"ltr"
            }
          ]
        }
      ],
      "translation":true,
      "speech":false,
      "truetext":false,
      "conversationalSpeech":false,
      "customizableSpeech":false,
      "dictionaries":[
        {
          "name":"English",
          "nativeName":"English",
          "dir":"ltr",
          "code":"en"
        }
      ],
      "voices":null,
      "speechRegions":null
    },
    "sv":{
      "name":"Swedish",
      "nativeName":"Svenska",
      "dir":"ltr",
      "scripts":null,
      "translation":true,
      "speech":true,
      "truetext":false,
      "conversationalSpeech":false,
      "customizableSpeech":false,
      "speechCode":"sv-SE",
      "dictionaries":[
        {
          "name":"English",
          "nativeName":"English",
          "dir":"ltr",
          "code":"en"
        }
      ],
      "voices":[
        {
          "gender":"male",
          "locale":"sv-SE",
          "displayName":"Bengt",
          "regionName":"Sweden",
          "region":"SE",
          "nativeRegionName":"Sverige",
          "voice":"sv-SE-Bengt",
          "shortName":"sv-SE-Bengt"
        },
        {
          "gender":"female",
          "locale":"sv-SE",
          "displayName":"Karin",
          "regionName":"Sweden",
          "region":"SE",
          "nativeRegionName":"Sverige",
          "voice":"sv-SE-Karin",
          "shortName":"sv-SE-Karin"
        }
      ],
      "speechRegions":[
        {
          "code":"SE",
          "name":"Sweden",
          "nativeName":"Sverige"
        }
      ]
    },
    "sw":{
      "name":"Swahili",
      "nativeName":"Kiswahili",
      "dir":"ltr",
      "scripts":null,
      "translation":true,
      "speech":false,
      "truetext":false,
      "conversationalSpeech":false,
      "customizableSpeech":false,
      "dictionaries":[
        {
          "name":"English",
          "nativeName":"English",
          "dir":"ltr",
          "code":"en"
        }
      ],
      "voices":null,
      "speechRegions":null
    },
    "ta":{
      "name":"Tamil",
      "nativeName":"தமிழ்",
      "dir":"ltr",
      "scripts":[
        {
          "code":"Taml",
          "name":"Tamil",
          "nativeName":"Tamil",
          "dir":"ltr",
          "toScripts":[
            {
              "code":"Latn",
              "name":"Latin",
              "nativeName":"Latin",
              "dir":"ltr"
            }
          ]
        },
        {
          "code":"Latn",
          "name":"Latin",
          "nativeName":"Latin",
          "dir":"ltr",
          "toScripts":[
            {
              "code":"Taml",
              "name":"Tamil",
              "nativeName":"Tamil",
              "dir":"ltr"
            }
          ]
        }
      ],
      "translation":true,
      "speech":true,
      "truetext":false,
      "conversationalSpeech":false,
      "customizableSpeech":false,
      "speechCode":"ta-IN",
      "dictionaries":[
        {
          "name":"English",
          "nativeName":"English",
          "dir":"ltr",
          "code":"en"
        }
      ],
      "voices":[
        {
          "gender":"male",
          "locale":"ta-IN",
          "displayName":"Valluvar",
          "regionName":"India",
          "region":"IN",
          "nativeRegionName":"இந்தியா",
          "voice":"ta-IN-Valluvar",
          "shortName":"ta-IN-Valluvar"
        }
      ],
      "speechRegions":[
        {
          "code":"IN",
          "name":"India",
          "nativeName":"இந்தியா"
        }
      ]
    },
    "te":{
      "name":"Telugu",
      "nativeName":"తెలుగు",
      "dir":"ltr",
      "scripts":[
        {
          "code":"Telu",
          "name":"Telugu",
          "nativeName":"Telugu",
          "dir":"ltr",
          "toScripts":[
            {
              "code":"Latn",
              "name":"Latin",
              "nativeName":"Latin",
              "dir":"ltr"
            }
          ]
        },
        {
          "code":"Latn",
          "name":"Latin",
          "nativeName":"Latin",
          "dir":"ltr",
          "toScripts":[
            {
              "code":"Telu",
              "name":"Telugu",
              "nativeName":"Telugu",
              "dir":"ltr"
            }
          ]
        }
      ],
      "translation":true,
      "speech":true,
      "truetext":false,
      "conversationalSpeech":false,
      "customizableSpeech":false,
      "speechCode":"te-IN",
      "voices":[
        {
          "gender":"female",
          "locale":"te-IN",
          "displayName":"Chitra",
          "regionName":"India",
          "region":"IN",
          "nativeRegionName":"భారత్",
          "voice":"te-IN-Chitra",
          "shortName":"te-IN-Chitra"
        }
      ],
      "speechRegions":[
        {
          "code":"IN",
          "name":"India",
          "nativeName":"భారత్"
        }
      ]
    },
    "tg":{
      "name":"Tajik",
      "nativeName":"Tajik",
      "dir":"ltr",
      "scripts":[
        {
          "code":"Cyrl",
          "name":"Cyrillic",
          "nativeName":"Cyrillic",
          "dir":"ltr",
          "toScripts":[
            {
              "code":"Latn",
              "name":"Latin",
              "nativeName":"Latin",
              "dir":"ltr"
            }
          ]
        },
        {
          "code":"Latn",
          "name":"Latin",
          "nativeName":"Latin",
          "dir":"ltr",
          "toScripts":[
            {
              "code":"Cyrl",
              "name":"Cyrillic",
              "nativeName":"Cyrillic",
              "dir":"ltr"
            }
          ]
        }
      ],
      "translation":false,
      "speech":false,
      "truetext":false,
      "conversationalSpeech":false,
      "customizableSpeech":false,
      "voices":null,
      "speechRegions":null
    },
    "th":{
      "name":"Thai",
      "nativeName":"ไทย",
      "dir":"ltr",
      "scripts":[
        {
          "code":"Thai",
          "name":"Thai",
          "nativeName":"ภาษาไทย",
          "dir":"ltr",
          "toScripts":[
            {
              "code":"Latn",
              "name":"Latin",
              "nativeName":"ละติน",
              "dir":"ltr"
            }
          ]
        }
      ],
      "translation":true,
      "speech":true,
      "truetext":false,
      "conversationalSpeech":false,
      "customizableSpeech":false,
      "speechCode":"th-TH",
      "dictionaries":[
        {
          "name":"English",
          "nativeName":"English",
          "dir":"ltr",
          "code":"en"
        }
      ],
      "voices":[
        {
          "gender":"male",
          "locale":"th-TH",
          "displayName":"Pattara",
          "regionName":"Thailand",
          "region":"TH",
          "nativeRegionName":"ไทย",
          "voice":"th-TH-Pattara",
          "shortName":"th-TH-Pattara"
        }
      ],
      "speechRegions":[
        {
          "code":"TH",
          "name":"Thailand",
          "nativeName":"ไทย"
        }
      ]
    },
    "tlh-Latn":{
      "name":"Klingon (Latin)",
      "nativeName":"Klingon (Latin)",
      "dir":"ltr",
      "scripts":null,
      "translation":true,
      "speech":false,
      "truetext":false,
      "conversationalSpeech":false,
      "customizableSpeech":false,
      "dictionaries":[
        {
          "name":"English",
          "nativeName":"English",
          "dir":"ltr",
          "code":"en"
        }
      ],
      "voices":null,
      "speechRegions":null
    },
    "tlh-Piqd":{
      "name":"Klingon (pIqaD)",
      "nativeName":"Klingon (pIqaD)",
      "dir":"ltr",
      "scripts":null,
      "translation":true,
      "speech":false,
      "truetext":false,
      "conversationalSpeech":false,
      "customizableSpeech":false,
      "voices":null,
      "speechRegions":null
    },
    "to":{
      "name":"Tongan",
      "nativeName":"lea fakatonga",
      "dir":"ltr",
      "scripts":null,
      "translation":true,
      "speech":false,
      "truetext":false,
      "conversationalSpeech":false,
      "customizableSpeech":false,
      "voices":null,
      "speechRegions":null
    },
    "tr":{
      "name":"Turkish",
      "nativeName":"Türkçe",
      "dir":"ltr",
      "scripts":null,
      "translation":true,
      "speech":true,
      "truetext":false,
      "conversationalSpeech":false,
      "customizableSpeech":false,
      "speechCode":"tr-TR",
      "dictionaries":[
        {
          "name":"English",
          "nativeName":"English",
          "dir":"ltr",
          "code":"en"
        }
      ],
      "voices":[
        {
          "gender":"female",
          "locale":"tr-TR",
          "displayName":"Seda",
          "regionName":"Turkey",
          "region":"TR",
          "nativeRegionName":"Türkiye",
          "voice":"tr-TR-Seda",
          "shortName":"tr-TR-Seda"
        },
        {
          "gender":"male",
          "locale":"tr-TR",
          "displayName":"Tolga",
          "regionName":"Turkey",
          "region":"TR",
          "nativeRegionName":"Türkiye",
          "voice":"tr-TR-Tolga",
          "shortName":"tr-TR-Tolga"
        }
      ],
      "speechRegions":[
        {
          "code":"TR",
          "name":"Turkey",
          "nativeName":"Türkiye"
        }
      ]
    },
    "tt":{
      "name":"Tatar",
      "nativeName":"Tatar",
      "dir":"ltr",
      "scripts":[
        {
          "code":"Cyrl",
          "name":"Cyrillic",
          "nativeName":"Cyrillic",
          "dir":"ltr",
          "toScripts":[
            {
              "code":"Latn",
              "name":"Latin",
              "nativeName":"Latin",
              "dir":"ltr"
            }
          ]
        },
        {
          "code":"Latn",
          "name":"Latin",
          "nativeName":"Latin",
          "dir":"ltr",
          "toScripts":[
            {
              "code":"Cyrl",
              "name":"Cyrillic",
              "nativeName":"Cyrillic",
              "dir":"ltr"
            }
          ]
        }
      ],
      "translation":false,
      "speech":false,
      "truetext":false,
      "conversationalSpeech":false,
      "customizableSpeech":false,
      "voices":null,
      "speechRegions":null
    },
    "ty":{
      "name":"Tahitian",
      "nativeName":"Tahitian",
      "dir":"ltr",
      "scripts":null,
      "translation":true,
      "speech":false,
      "truetext":false,
      "conversationalSpeech":false,
      "customizableSpeech":false,
      "voices":null,
      "speechRegions":null
    },
    "uk":{
      "name":"Ukrainian",
      "nativeName":"Українська",
      "dir":"ltr",
      "scripts":[
        {
          "code":"Cyrl",
          "name":"Cyrillic",
          "nativeName":"Кирилиця",
          "dir":"ltr",
          "toScripts":[
            {
              "code":"Latn",
              "name":"Latin",
              "nativeName":"латиниця",
              "dir":"ltr"
            }
          ]
        },
        {
          "code":"Latn",
          "name":"Latin",
          "nativeName":"латиниця",
          "dir":"ltr",
          "toScripts":[
            {
              "code":"Cyrl",
              "name":"Cyrillic",
              "nativeName":"Кирилиця",
              "dir":"ltr"
            }
          ]
        }
      ],
      "translation":true,
      "speech":false,
      "truetext":false,
      "conversationalSpeech":false,
      "customizableSpeech":false,
      "dictionaries":[
        {
          "name":"English",
          "nativeName":"English",
          "dir":"ltr",
          "code":"en"
        }
      ],
      "voices":null,
      "speechRegions":null
    },
    "ur":{
      "name":"Urdu",
      "nativeName":"اردو",
      "dir":"rtl",
      "scripts":[
        {
          "code":"Arab",
          "name":"Arabic",
          "nativeName":"Arabic",
          "dir":"rtl",
          "toScripts":[
            {
              "code":"Latn",
              "name":"Latin",
              "nativeName":"Latin",
              "dir":"ltr"
            }
          ]
        },
        {
          "code":"Latn",
          "name":"Latin",
          "nativeName":"Latin",
          "dir":"ltr",
          "toScripts":[
            {
              "code":"Arab",
              "name":"Arabic",
              "nativeName":"Arabic",
              "dir":"rtl"
            }
          ]
        }
      ],
      "translation":true,
      "speech":false,
      "truetext":false,
      "conversationalSpeech":false,
      "customizableSpeech":false,
      "dictionaries":[
        {
          "name":"English",
          "nativeName":"English",
          "dir":"ltr",
          "code":"en"
        }
      ],
      "voices":null,
      "speechRegions":null
    },
    "vi":{
      "name":"Vietnamese",
      "nativeName":"Tiếng Việt",
      "dir":"ltr",
      "scripts":null,
      "translation":true,
      "speech":false,
      "truetext":false,
      "conversationalSpeech":false,
      "customizableSpeech":false,
      "dictionaries":[
        {
          "name":"English",
          "nativeName":"English",
          "dir":"ltr",
          "code":"en"
        }
      ],
      "voices":[
        {
          "gender":"male",
          "locale":"vi-VN",
          "displayName":"An",
          "regionName":"Viet Nam",
          "region":"VN",
          "nativeRegionName":"Viet Nam",
          "voice":"vi-VN-An",
          "shortName":"vi-VN-An"
        }
      ],
      "speechRegions":null
    },
    "yua":{
      "name":"Yucatec Maya",
      "nativeName":"Yucatec Maya",
      "dir":"ltr",
      "scripts":null,
      "translation":true,
      "speech":false,
      "truetext":false,
      "conversationalSpeech":false,
      "customizableSpeech":false,
      "voices":null,
      "speechRegions":null
    },
    "yue":{
      "name":"Cantonese (Traditional)",
      "nativeName":"粵語 (繁體中文)",
      "dir":"ltr",
      "scripts":null,
      "translation":true,
      "speech":true,
      "truetext":false,
      "conversationalSpeech":false,
      "customizableSpeech":false,
      "speechCode":"zh-HK",
      "voices":[
        {
          "gender":"male",
          "locale":"zh-HK",
          "displayName":"Danny",
          "regionName":"Hong Kong S.A.R.",
          "region":"HK",
          "nativeRegionName":"Hong Kong S.A.R.",
          "voice":"zh-HK-Danny",
          "shortName":"zh-HK-Danny-Apollo"
        },
        {
          "gender":"female",
          "locale":"zh-HK",
          "displayName":"Tracy",
          "regionName":"Hong Kong S.A.R.",
          "region":"HK",
          "nativeRegionName":"Hong Kong S.A.R.",
          "voice":"zh-HK-Tracy",
          "shortName":"zh-HK-Tracy-Apollo"
        }
      ],
      "speechRegions":[
        {
          "code":"HK",
          "name":"Hong Kong S.A.R.",
          "nativeName":"Hong Kong S.A.R."
        }
      ]
    },
    "zh-Hans":{
      "name":"Chinese Simplified",
      "nativeName":"简体中文",
      "dir":"ltr",
      "scripts":[
        {
          "code":"Hans",
          "name":"Simplified",
          "nativeName":"简体汉语",
          "dir":"ltr",
          "toScripts":[
            {
              "code":"Latn",
              "name":"Latin",
              "nativeName":"拉丁语",
              "dir":"ltr"
            },
            {
              "code":"Hant",
              "name":"Hat",
              "nativeName":"传统",
              "dir":"ltr"
            }
          ]
        },
        {
          "code":"Latn",
          "name":"Latin",
          "nativeName":"拉丁语",
          "dir":"ltr",
          "toScripts":[
            {
              "code":"Hans",
              "name":"Han",
              "nativeName":"简体汉语",
              "dir":"ltr"
            },
            {
              "code":"Hant",
              "name":"Hat",
              "nativeName":"传统",
              "dir":"ltr"
            }
          ]
        }
      ],
      "translation":true,
      "speech":true,
      "truetext":true,
      "conversationalSpeech":true,
      "customizableSpeech":true,
      "speechCode":"zh-CN",
      "dictionaries":[
        {
          "name":"English",
          "nativeName":"English",
          "dir":"ltr",
          "code":"en"
        }
      ],
      "voices":[
        {
          "gender":"male",
          "locale":"zh-CN",
          "displayName":"Kangkang",
          "regionName":"People's Republic of China",
          "region":"CN",
          "nativeRegionName":"中华人民共和国",
          "voice":"zh-CN-Kangkang",
          "shortName":"zh-CN-Kangkang-Apollo"
        },
        {
          "gender":"female",
          "locale":"zh-CN",
          "displayName":"Yaoyao",
          "regionName":"People's Republic of China",
          "region":"CN",
          "nativeRegionName":"中华人民共和国",
          "voice":"zh-CN-Yaoyao",
          "shortName":"zh-CN-Yaoyao-Apollo"
        }
      ],
      "speechRegions":[
        {
          "code":"CN",
          "name":"People's Republic of China",
          "nativeName":"中华人民共和国"
        }
      ]
    },
    "zh-Hant":{
      "name":"Chinese Traditional",
      "nativeName":"繁體中文",
      "dir":"ltr",
      "scripts":[
        {
          "code":"Hant",
          "name":"Traditional",
          "nativeName":"傳統",
          "dir":"ltr",
          "toScripts":[
            {
              "code":"Latn",
              "name":"Latin",
              "nativeName":"拉丁语",
              "dir":"ltr"
            },
            {
              "code":"Hans",
              "name":"Han",
              "nativeName":"简体汉语",
              "dir":"ltr"
            }
          ]
        },
        {
          "code":"Latn",
          "name":"Latin",
          "nativeName":"拉丁文",
          "dir":"ltr",
          "toScripts":[
            {
              "code":"Hans",
              "name":"Han",
              "nativeName":"简体汉语",
              "dir":"ltr"
            },
            {
              "code":"Hant",
              "name":"Hat",
              "nativeName":"传统",
              "dir":"ltr"
            }
          ]
        }
      ],
      "translation":true,
      "speech":true,
      "truetext":false,
      "conversationalSpeech":true,
      "customizableSpeech":false,
      "speechCode":"zh-TW",
      "voices":[
        {
          "gender":"female",
          "locale":"zh-TW",
          "displayName":"Yating",
          "regionName":"Taiwan",
          "region":"TW",
          "nativeRegionName":"台灣",
          "voice":"zh-TW-Yating",
          "shortName":"zh-TW-Yating-Apollo"
        },
        {
          "gender":"male",
          "locale":"zh-TW",
          "displayName":"Zhiwei",
          "regionName":"Taiwan",
          "region":"TW",
          "nativeRegionName":"台灣",
          "voice":"zh-TW-Zhiwei",
          "shortName":"zh-TW-Zhiwei-Apollo"
        }
      ],
      "speechRegions":[
        {
          "code":"TW",
          "name":"Taiwan",
          "nativeName":"台灣"
        }
      ]
    }
  }
}